STARLINK-31464          
1 59318U 24056Y   26066.77561499  .00001482  00000+0  63377-4 0  9995
2 59318  42.9986 241.3384 0001422 289.0593  71.0104 15.27583803110867
FLOCK 4G-24             
1 62637U 25009AE  26068.72509072  .00010513  00000+0  38996-3 0  9991
2 62637  97.4061 151.5140 0001802 280.2808  79.8228 15.27784978 63732
